     2              NAVIGATION DATA                         RINEX VERSION / TYPE
CCRINEXN V1.6.0 UX  CDDIS               04-SEP-00 20:30     PGM / RUN BY / DATE 
IGS BROADCAST EPHEMERIS FILE                                COMMENT             
    0.2235D-07  0.2235D-07 -0.1192D-06 -0.1192D-06          ION ALPHA   （年历的电离层参数A0-A3）
    0.1290D+06  0.4915D+05 -0.1966D+06  0.3277D+06          ION BETA    （年历的电离层参数B0-B3）
   -0.372529029846D-08 -0.106581410364D-13   405504     1130 DELTA-UTC: A0,A1,T,W （年历参数来计算UTC中的时间，A0,A1多项式的项，T UTC数据的参考时间，W UTC参考周数）
    13                                                      LEAP SECONDS    （跳秒引起的时间增量）
                                                            END OF HEADER       
卫星号 (toc)年 月 日 时 分 秒  a0  a1  a2
 6 01  9  4  6  0  0.0-0.875443220139D-07-0.227373675443D-12 0.000000000000D+00
    0.232000000000D+03-0.159375000000D+02 0.550058626435D-08 0.116612436366D+01
   -0.771135091782D-06 0.687377632130D-02 0.388547778130D-05 0.515367047882D+04
    0.194400000000D+06-0.614672899246D-07-0.120587317474D+01 0.726431608200D-07
    0.943025016091D+00 0.299156250000D+03-0.226367569753D+01-0.873179228563D-08
   -0.141434462742D-09 0.100000000000D+01 0.113000000000D+04 0.000000000000D+00
    0.400000000000D+01 0.000000000000D+00-0.512227416039D-08 0.488000000000D+03
    0.187218000000D+06 0.000000000000D+00 0.000000000000D+00 0.000000000000D+00
 7 01  9  4  6  0  0.0 0.394343398511D-03 0.387672116631D-10 0.000000000000D+00
    0.205000000000D+03-0.177500000000D+02 0.534379401904D-08-0.310873500151D+01
   -0.916421413422D-06 0.120549602434D-01 0.349804759026D-05 0.515375283814D+04
    0.194400000000D+06 0.121071934700D-06-0.123591179831D+01-0.175088644028D-06
    0.944767396874D+00 0.301750000000D+03-0.199949593965D+01-0.840999316712D-08
   -0.907180644858D-10 0.100000000000D+01 0.113000000000D+04 0.000000000000D+00
    0.280000000000D+01 0.000000000000D+00-0.186264514923D-08 0.461000000000D+03
    0.187218000000D+06 0.400000000000D+01 0.000000000000D+00 0.000000000000D+00
 8 01  9  4  6  0  0.0 0.519176013768D-03 0.223963070312D-10 0.000000000000D+00
    0.184000000000D+03-0.821562500000D+02 0.426196324216D-08 0.146340831336D+01
   -0.435858964920D-05 0.807330105454D-02 0.110492110252D-04 0.515373367691D+04
    0.194400000000D+06 0.199303030968D-06 0.301442672210D+01-0.121071934700D-06
    0.959492837677D+00 0.163343750000D+03 0.204107681570D+01-0.791068665471D-08
   -0.213223167315D-09 0.100000000000D+01 0.113000000000D+04 0.000000000000D+00
    0.200000000000D+01 0.000000000000D+00-0.372529029846D-08 0.184000000000D+03
    0.187218000000D+06 0.400000000000D+01 0.000000000000D+00 0.000000000000D+00
 9 01  9  4  6  0  0.0-0.594928860664D-05-0.181898940355D-11 0.000000000000D+00
    0.176000000000D+03-0.721250000000D+02 0.470948188311D-08 0.909345584408D+00
   -0.371038913727D-05 0.122119642329D-01 0.100154429674D-04 0.515371006966D+04
    0.194400000000D+06-0.158324837685D-06 0.296104059015D+01 0.800937414169D-07
    0.945631646451D+00 0.181562500000D+03 0.747684479100D+00-0.825534386821D-08
   -0.361086469272D-09 0.100000000000D+01 0.113000000000D+04 0.000000000000D+00
    0.280000000000D+01 0.000000000000D+00-0.558793544769D-08 0.432000000000D+03
    0.189528000000D+06 0.400000000000D+01 0.000000000000D+00 0.000000000000D+00
10 01  9  4  6  0  0.0 0.963499769568D-05 0.568434188608D-12 0.000000000000D+00
    0.237000000000D+03 0.914375000000D+02 0.410874257419D-08-0.191360049835D+01
    0.471994280815D-05 0.449175911490D-02 0.850111246109D-05 0.515364112282D+04
    0.194400000000D+06 0.279396772385D-07 0.891207544863D+00-0.726431608200D-07
    0.978742632056D+00 0.226656250000D+03 0.900241618448D-01-0.790497213096D-08
    0.404302555110D-09 0.100000000000D+01 0.113000000000D+04 0.000000000000D+00
    0.300000000000D+01 0.000000000000D+00-0.186264514923D-08 0.493000000000D+03
    0.188868000000D+06 0.000000000000D+00 0.000000000000D+00 0.000000000000D+00
11 01  9  4  6  0  0.0 0.369362533093D-05 0.227373675443D-12 0.000000000000D+00
    0.210000000000D+02-0.383125000000D+02 0.537522389965D-08-0.219217351808D+01
   -0.198185443878D-05 0.102309545036D-02 0.105947256088D-04 0.515371068001D+04
    0.194400000000D+06 0.121071934700D-06-0.209362946178D+00 0.167638063431D-07
    0.921076579657D+00 0.151031250000D+03-0.245124105754D+01-0.842713673836D-08
   -0.408231290186D-09 0.100000000000D+01 0.113000000000D+04 0.000000000000D+00
    0.280000000000D+01 0.000000000000D+00-0.838190317154D-08 0.789000000000D+03
    0.187218000000D+06 0.400000000000D+01 0.000000000000D+00 0.000000000000D+00
13 01  9  4  6  0  0.0-0.480469316244D-05-0.454747350886D-12 0.000000000000D+00
    0.100000000000D+02-0.296875000000D+02 0.467983779117D-08-0.131643838585D+01
   -0.143237411976D-05 0.188764836639D-02 0.261515378952D-05 0.515369899750D+04
    0.194400000000D+06-0.391155481339D-07 0.193662967576D+01-0.484287738800D-07
    0.969556217497D+00 0.334968750000D+03 0.898701765507D-01-0.839034949173D-08
   -0.144291724615D-09 0.100000000000D+01 0.113000000000D+04 0.000000000000D+00
    0.300000000000D+01 0.000000000000D+00-0.116415321827D-07 0.266000000000D+03
    0.187368000000D+06 0.000000000000D+00 0.000000000000D+00 0.000000000000D+00
14 01  9  4  6  0  0.0-0.122300814837D-03-0.568434188608D-12 0.000000000000D+00
    0.900000000000D+01-0.243750000000D+02 0.468198073758D-08 0.162792831608D+01
   -0.114552676678D-05 0.232828583103D-02 0.261329114437D-05 0.515366358948D+04
    0.194400000000D+06 0.149011611939D-07 0.193253584142D+01 0.335276126862D-07
    0.964221002075D+00 0.329750000000D+03-0.477154587358D+00-0.835284792964D-08
   -0.138934358602D-09 0.100000000000D+01 0.113000000000D+04 0.000000000000D+00
    0.400000000000D+01 0.000000000000D+00-0.102445483208D-07 0.900000000000D+01
    0.187218000000D+06 0.000000000000D+00 0.000000000000D+00 0.000000000000D+00
15 01  9  4  6  0  0.0 0.773090869188D-04 0.432009983342D-11 0.000000000000D+00
    0.750000000000D+02-0.212500000000D+02 0.386551815720D-08 0.183250127202D+01
   -0.129453837872D-05 0.810850155540D-02 0.110529363155D-04 0.515366323662D+04
    0.194400000000D+06 0.949949026108D-07-0.872575218946D-01-0.968575477600D-07
    0.979756211922D+00 0.172000000000D+03 0.174370921928D+01-0.757602985777D-08
   -0.391087718945D-09 0.100000000000D+01 0.113000000000D+04 0.000000000000D+00
    0.400000000000D+01 0.000000000000D+00-0.279396772385D-08 0.331000000000D+03
    0.187218000000D+06 0.000000000000D+00 0.000000000000D+00 0.000000000000D+00
17 01  9  4  6  0  0.0-0.331998802722D-03 0.136765265779D-09 0.000000000000D+00
    0.171000000000D+03-0.161562500000D+02 0.394409285873D-08 0.712720480995D+00
   -0.821426510811D-06 0.134306490654D-01 0.109188258648D-04 0.515368595123D+04
    0.194400000000D+06 0.195577740669D-06-0.471723142648D-01 0.135973095894D-06
    0.981608149177D+00 0.177125000000D+03-0.313419817324D+01-0.776603777236D-08
   -0.393230665350D-09 0.100000000000D+01 0.113000000000D+04 0.000000000000D+00
    0.200000000000D+01 0.000000000000D+00-0.232830643654D-08 0.427000000000D+03
    0.187218000000D+06 0.000000000000D+00 0.000000000000D+00 0.000000000000D+00
18 01  9  4  6  0  0.0-0.741360709071D-04-0.227373675443D-12 0.000000000000D+00
    0.900000000000D+01 0.829375000000D+02 0.450661629009D-08 0.621350008808D-01
    0.418908894062D-05 0.229402363766D-02 0.755302608013D-05 0.515364432335D+04
    0.194400000000D+06 0.409781932831D-07 0.939311086946D+00-0.298023223877D-07
    0.961443252725D+00 0.237937500000D+03 0.273712557652D+01-0.814141055100D-08
    0.266439669710D-09 0.100000000000D+01 0.113000000000D+04 0.000000000000D+00
    0.400000000000D+01 0.000000000000D+00-0.102445483208D-07 0.900000000000D+01
    0.187308000000D+06 0.000000000000D+00 0.000000000000D+00 0.000000000000D+00
19 01  9  4  6  0  0.0 0.294391065836D-04 0.142108547152D-10 0.000000000000D+00
    0.100000000000D+01-0.851562500000D+02 0.504842457286D-08 0.752697536554D+00
   -0.434555113316D-05 0.707914493978D-02 0.100396573544D-04 0.515364476395D+04
    0.194400000000D+06-0.670552253723D-07 0.289409276873D+01 0.134110450745D-06
    0.929607146098D+00 0.169656250000D+03-0.251842366854D+01-0.839142096494D-08
   -0.343942898031D-09 0.100000000000D+01 0.113000000000D+04 0.000000000000D+00
    0.800000000000D+01 0.600000000000D+02-0.325962901115D-08 0.513000000000D+03
    0.187218000000D+06 0.000000000000D+00 0.000000000000D+00 0.000000000000D+00
20 01  9  4  6  0  0.0-0.960859470069D-04-0.284217094304D-11 0.000000000000D+00
    0.240000000000D+02 0.102718750000D+03 0.449197282298D-08-0.165353203766D+01
    0.524148344994D-05 0.225132401101D-02 0.815279781818D-05 0.515376944733D+04
    0.194400000000D+06-0.186264514923D-07 0.887185918695D+00 0.409781932831D-07
    0.962206103061D+00 0.223062500000D+03 0.209787922418D+01-0.812926718804D-08
    0.342871424828D-09 0.100000000000D+01 0.113000000000D+04 0.000000000000D+00
    0.400000000000D+01 0.000000000000D+00-0.651925802231D-08 0.792000000000D+03
    0.190818000000D+06 0.000000000000D+00 0.000000000000D+00 0.000000000000D+00
21 01  9  4  6  0  0.0 0.479212030768D-05 0.000000000000D+00 0.000000000000D+00
    0.175000000000D+03 0.907812500000D+02 0.404016828923D-08-0.162601381128D+01
    0.459142029285D-05 0.175278071547D-01 0.772252678871D-05 0.515362703896D+04
    0.194400000000D+06 0.258907675743D-06 0.897138448823D+00-0.208616256714D-06
    0.978378160646D+00 0.239437500000D+03-0.242128351620D+01-0.769317759458D-08
    0.414660129402D-09 0.100000000000D+01 0.113000000000D+04 0.000000000000D+00
    0.280000000000D+01 0.000000000000D+00-0.232830643654D-08 0.175000000000D+03
    0.187218000000D+06 0.000000000000D+00 0.000000000000D+00 0.000000000000D+00
